[
    {
        "CCSDS_OMM_VERS": "3.0",
        "COMMENT": "GENERATED VIA SPACE-TRACK.ORG API",
        "CREATION_DATE": "2025-05-02T17:35:09",
        "ORIGINATOR": "18 SPCS",
        "OBJECT_NAME": "BD-17",
        "OBJECT_ID": "2015-019A",
        "CENTER_NAME": "EARTH",
        "REF_FRAME": "TEME",
        "TIME_SYSTEM": "UTC",
        "MEAN_ELEMENT_THEORY": "SGP4",
        "EPOCH": "2025-05-01T23:23:40.272288",
        "MEAN_MOTION": "1.00287842",
        "ECCENTRICITY": "0.00384120",
        "INCLINATION": "49.9741",
        "RA_OF_ASC_NODE": "300.3973",
        "ARG_OF_PERICENTER": "190.8805",
        "MEAN_ANOMALY": "173.4956",
        "EPHEMERIS_TYPE": "0",
        "CLASSIFICATION_TYPE": "U",
        "NORAD_CAT_ID": "40549",
        "ELEMENT_SET_NO": "999",
        "REV_AT_EPOCH": "3695",
        "BSTAR": "0.00000000000000",
        "MEAN_MOTION_DOT": "-0.00000175",
        "MEAN_MOTION_DDOT": "0.0000000000000",
        "SEMIMAJOR_AXIS": "42160.231",
        "PERIOD": "1435.867",
        "APOAPSIS": "35944.042",
        "PERIAPSIS": "35620.150",
        "OBJECT_TYPE": "PAYLOAD",
        "RCS_SIZE": "LARGE",
        "COUNTRY_CODE": "PRC",
        "LAUNCH_DATE": "2015-03-30",
        "SITE": "XSC",
        "DECAY_DATE": null,
        "FILE": "4716995",
        "GP_ID": "286678210",
        "TLE_LINE0": "0 BD-17",
        "TLE_LINE1": "1 40549U 15019A   25121.97477167 -.00000175  00000-0  00000-0 0  9991",
        "TLE_LINE2": "2 40549  49.9741 300.3973 0038412 190.8805 173.4956  1.00287842 36952"
    }
]